{"type": "FeatureCollection", "features": [ {"type": "Feature", "properties": {"norad_id": 37834, "name": "INTELSAT 18 (IS-18)", "group": "intelsat", "lat": -0.026713262881142702, "lon": -151.89632137323898, "alt_km": 35781.46531265211, "timestamp": "2025-12-09T20:37:08.949621+00:00", "meta": {"OBJECT_NAME": "INTELSAT 18 (IS-18)", "OBJECT_ID": "2011-056A", "EPOCH": "2025-12-09T12:50:38.699232", "MEAN_MOTION": 1.00271465, "ECCENTRICITY": 0.00020554, "INCLINATION": 0.0174, "RA_OF_ASC_NODE": 342.9835, "ARG_OF_PERICENTER": 282.5767, "MEAN_ANOMALY": 185.6216, "EPHEMERIS_TYPE": 0, "CLASSIFICATION_TYPE": "U", "NORAD_CAT_ID": 37834, "ELEMENT_SET_NO": 999, "REV_AT_EPOCH": 5191, "BSTAR": 0, "MEAN_MOTION_DOT": 5.5e-07, "MEAN_MOTION_DDOT": 0}, "tle": {"line1": "1 37834U 11056A   25343.53517013  .00000055  00000+0  00000+0 0  9998", "line2": "2 37834   0.0174 342.9835 0002055 282.5767 185.6216  1.00271465 51913"}}, "geometry": {"type": "Point", "coordinates": [-151.89632137323898, -0.026713262881142702]}}, {"type": "Feature", "properties": {"norad_id": 38098, "name": "INTELSAT 22 (IS-22)", "group": "intelsat", "lat": 0.021089622818683262, "lon": 100.2465827656199, "alt_km": 35791.667472506924, "timestamp": "2025-12-09T20:37:08.949633+00:00", "meta": {"OBJECT_NAME": "INTELSAT 22 (IS-22)", "OBJECT_ID": "2012-011A", "EPOCH": "2025-12-09T13:54:58.208832", "MEAN_MOTION": 1.00274452, "ECCENTRICITY": 0.00015524, "INCLINATION": 0.0157, "RA_OF_ASC_NODE": 308.6129, "ARG_OF_PERICENTER": 316.3489, "MEAN_ANOMALY": 94.47, "EPHEMERIS_TYPE": 0, "CLASSIFICATION_TYPE": "U", "NORAD_CAT_ID": 38098, "ELEMENT_SET_NO": 999, "REV_AT_EPOCH": 528, "BSTAR": 0, "MEAN_MOTION_DOT": -5.7e-07, "MEAN_MOTION_DDOT": 0}, "tle": {"line1": "1 38098U 12011A   25343.57984038 -.00000057  00000+0  00000+0 0  9995", "line2": "2 38098   0.0157 308.6129 0001552 316.3489  94.4700  1.00274452  5283"}}, "geometry": {"type": "Point", "coordinates": [100.2465827656199, 0.021089622818683262]}}, {"type": "Feature", "properties": {"norad_id": 38356, "name": "INTELSAT 19 (IS-19)", "group": "intelsat", "lat": -0.015039092905642894, "lon": -165.9062921231719, "alt_km": 35781.55601148426, "timestamp": "2025-12-09T20:37:08.949645+00:00", "meta": {"OBJECT_NAME": "INTELSAT 19 (IS-19)", "OBJECT_ID": "2012-030A", "EPOCH": "2025-12-09T13:57:53.515296", "MEAN_MOTION": 1.00271733, "ECCENTRICITY": 0.00035319, "INCLINATION": 0.0089, "RA_OF_ASC_NODE": 343.5427, "ARG_OF_PERICENTER": 282.9405, "MEAN_ANOMALY": 187.5649, "EPHEMERIS_TYPE": 0, "CLASSIFICATION_TYPE": "U", "NORAD_CAT_ID": 38356, "ELEMENT_SET_NO": 999, "REV_AT_EPOCH": 4855, "BSTAR": 0, "MEAN_MOTION_DOT": -5.4e-07, "MEAN_MOTION_DDOT": 0}, "tle": {"line1": "1 38356U 12030A   25343.58186939 -.00000054  00000+0  00000+0 0  9995", "line2": "2 38356   0.0089 343.5427 0003531 282.9405 187.5649  1.00271733 48550"}}, "geometry": {"type": "Point", "coordinates": [-165.9062921231719, -0.015039092905642894]}}, {"type": "Feature", "properties": {"norad_id": 38740, "name": "INTELSAT 20 (IS-20)", "group": "intelsat", "lat": 0.0027497334359472903, "lon": 96.60556479345779, "alt_km": 35786.99140676503, "timestamp": "2025-12-09T20:37:08.949657+00:00", "meta": {"OBJECT_NAME": "INTELSAT 20 (IS-20)", "OBJECT_ID": "2012-043A", "EPOCH": "2025-12-09T13:53:50.816832", "MEAN_MOTION": 1.00268403, "ECCENTRICITY": 0.00025567, "INCLINATION": 0.0087, "RA_OF_ASC_NODE": 90.6017, "ARG_OF_PERICENTER": 95.7076, "MEAN_ANOMALY": 169.2304, "EPHEMERIS_TYPE": 0, "CLASSIFICATION_TYPE": "U", "NORAD_CAT_ID": 38740, "ELEMENT_SET_NO": 999, "REV_AT_EPOCH": 4884, "BSTAR": 0, "MEAN_MOTION_DOT": -2.1e-07, "MEAN_MOTION_DDOT": 0}, "tle": {"line1": "1 38740U 12043A   25343.57906038 -.00000021  00000+0  00000+0 0  9999", "line2": "2 38740   0.0087  90.6017 0002556  95.7076 169.2304  1.00268403 48847"}}, "geometry": {"type": "Point", "coordinates": [96.60556479345779, 0.0027497334359472903]}}, {"type": "Feature", "properties": {"norad_id": 38749, "name": "INTELSAT 21 (IS-21)", "group": "intelsat", "lat": -0.016214734883142966, "lon": -29.847771992044937, "alt_km": 35784.08373109436, "timestamp": "2025-12-09T20:37:08.949669+00:00", "meta": {"OBJECT_NAME": "INTELSAT 21 (IS-21)", "OBJECT_ID": "2012-045A", "EPOCH": "2025-12-09T11:35:04.111008", "MEAN_MOTION": 1.002704, "ECCENTRICITY": 0.00021589, "INCLINATION": 0.0121, "RA_OF_ASC_NODE": 36.6822, "ARG_OF_PERICENTER": 218.8599, "MEAN_ANOMALY": 298.7001, "EPHEMERIS_TYPE": 0, "CLASSIFICATION_TYPE": "U", "NORAD_CAT_ID": 38749, "ELEMENT_SET_NO": 999, "REV_AT_EPOCH": 4862, "BSTAR": 0, "MEAN_MOTION_DOT": -2.83e-06, "MEAN_MOTION_DDOT": 0}, "tle": {"line1": "1 38749U 12045A   25343.48268647 -.00000283  00000+0  00000+0 0  9997", "line2": "2 38749   0.0121  36.6822 0002158 218.8599 298.7001  1.00270400 48623"}}, "geometry": {"type": "Point", "coordinates": [-29.847771992044937, -0.016214734883142966]}}, {"type": "Feature", "properties": {"norad_id": 38867, "name": "INTELSAT 23 (IS-23)", "group": "intelsat", "lat": -0.035484517977288854, "lon": -24.897842238214107, "alt_km": 35795.635501327844, "timestamp": "2025-12-09T20:37:08.949681+00:00", "meta": {"OBJECT_NAME": "INTELSAT 23 (IS-23)", "OBJECT_ID": "2012-057A", "EPOCH": "2025-12-09T11:36:33.967008", "MEAN_MOTION": 1.00260409, "ECCENTRICITY": 0.0002031, "INCLINATION": 0.0423, "RA_OF_ASC_NODE": 93.9741, "ARG_OF_PERICENTER": 103.251, "MEAN_ANOMALY": 2.3642, "EPHEMERIS_TYPE": 0, "CLASSIFICATION_TYPE": "U", "NORAD_CAT_ID": 38867, "ELEMENT_SET_NO": 999, "REV_AT_EPOCH": 4805, "BSTAR": 0, "MEAN_MOTION_DOT": -2.82e-06, "MEAN_MOTION_DDOT": 0}, "tle": {"line1": "1 38867U 12057A   25343.48372647 -.00000282  00000+0  00000+0 0  9996", "line2": "2 38867   0.0423  93.9741 0002031 103.2510   2.3642  1.00260409 48050"}}, "geometry": {"type": "Point", "coordinates": [-24.897842238214107, -0.035484517977288854]}}, {"type": "Feature", "properties": {"norad_id": 39360, "name": "FM-6", "group": "intelsat", "lat": -0.004201230271344658, "lon": -87.99013871727585, "alt_km": 35788.490416889035, "timestamp": "2025-12-09T20:37:08.949692+00:00", "meta": {"OBJECT_NAME": "FM-6", "OBJECT_ID": "2013-058A", "EPOCH": "2025-12-09T13:10:20.280576", "MEAN_MOTION": 1.00269305, "ECCENTRICITY": 0.00028552, "INCLINATION": 0.007, "RA_OF_ASC_NODE": 81.8262, "ARG_OF_PERICENTER": 91.8645, "MEAN_ANOMALY": 346.2842, "EPHEMERIS_TYPE": 0, "CLASSIFICATION_TYPE": "U", "NORAD_CAT_ID": 39360, "ELEMENT_SET_NO": 999, "REV_AT_EPOCH": 4417, "BSTAR": 0, "MEAN_MOTION_DOT": -1.4e-07, "MEAN_MOTION_DDOT": 0}, "tle": {"line1": "1 39360U 13058A   25343.54884584 -.00000014  00000+0  00000+0 0  9995", "line2": "2 39360   0.0070  81.8262 0002855  91.8645 346.2842  1.00269305 44171"}}, "geometry": {"type": "Point", "coordinates": [-87.99013871727585, -0.004201230271344658]}}, {"type": "Feature", "properties": {"norad_id": 40271, "name": "INTELSAT 30 (IS-30)", "group": "intelsat", "lat": -0.029466215682633076, "lon": -66.94317421738829, "alt_km": 35791.54492767183, "timestamp": "2025-12-09T20:37:08.949704+00:00", "meta": {"OBJECT_NAME": "INTELSAT 30 (IS-30)", "OBJECT_ID": "2014-062A", "EPOCH": "2025-12-09T12:22:48.556128", "MEAN_MOTION": 1.00269053, "ECCENTRICITY": 0.00012996, "INCLINATION": 0.0144, "RA_OF_ASC_NODE": 15.4205, "ARG_OF_PERICENTER": 65.9123, "MEAN_ANOMALY": 87.8151, "EPHEMERIS_TYPE": 0, "CLASSIFICATION_TYPE": "U", "NORAD_CAT_ID": 40271, "ELEMENT_SET_NO": 999, "REV_AT_EPOCH": 488, "BSTAR": 0, "MEAN_MOTION_DOT": -1.48e-06, "MEAN_MOTION_DDOT": 0}, "tle": {"line1": "1 40271U 14062A   25343.51583977 -.00000148  00000+0  00000+0 0  9991", "line2": "2 40271   0.0144  15.4205 0001299  65.9123  87.8151  1.00269053  4885"}}, "geometry": {"type": "Point", "coordinates": [-66.94317421738829, -0.029466215682633076]}}, {"type": "Feature", "properties": {"norad_id": 40333, "name": "DIRECTV 14", "group": "intelsat", "lat": -0.026839524833101883, "lon": -71.05211026463519, "alt_km": 35779.25854295884, "timestamp": "2025-12-09T20:37:08.949715+00:00", "meta": {"OBJECT_NAME": "DIRECTV 14", "OBJECT_ID": "2014-078B", "EPOCH": "2025-12-09T10:14:01.480992", "MEAN_MOTION": 1.00285429, "ECCENTRICITY": 9.851e-05, "INCLINATION": 0.0183, "RA_OF_ASC_NODE": 330.534, "ARG_OF_PERICENTER": 274.6028, "MEAN_ANOMALY": 247.5776, "EPHEMERIS_TYPE": 0, "CLASSIFICATION_TYPE": "U", "NORAD_CAT_ID": 40333, "ELEMENT_SET_NO": 999, "REV_AT_EPOCH": 4014, "BSTAR": 0, "MEAN_MOTION_DOT": -1.25e-06, "MEAN_MOTION_DDOT": 0}, "tle": {"line1": "1 40333U 14078B   25343.42640603 -.00000125  00000+0  00000+0 0  9992", "line2": "2 40333   0.0183 330.5340 0000985 274.6028 247.5776  1.00285429 40144"}}, "geometry": {"type": "Point", "coordinates": [-71.05211026463519, -0.026839524833101883]}}, {"type": "Feature", "properties": {"norad_id": 40663, "name": "DIRECTV 15", "group": "intelsat", "lat": -0.029823215272202767, "lon": -74.74336365204105, "alt_km": 35785.54964132172, "timestamp": "2025-12-09T20:37:08.949727+00:00", "meta": {"OBJECT_NAME": "DIRECTV 15", "OBJECT_ID": "2015-026A", "EPOCH": "2025-12-09T13:13:12.938880", "MEAN_MOTION": 1.00269129, "ECCENTRICITY": 3.073e-05, "INCLINATION": 0.0394, "RA_OF_ASC_NODE": 81.8436, "ARG_OF_PERICENTER": 210.8275, "MEAN_ANOMALY": 241.3048, "EPHEMERIS_TYPE": 0, "CLASSIFICATION_TYPE": "U", "NORAD_CAT_ID": 40663, "ELEMENT_SET_NO": 999, "REV_AT_EPOCH": 3856, "BSTAR": 0, "MEAN_MOTION_DOT": -1e-06, "MEAN_MOTION_DDOT": 0}, "tle": {"line1": "1 40663U 15026A   25343.55084420 -.00000100  00000+0  00000+0 0  9998", "line2": "2 40663   0.0394  81.8436 0000307 210.8275 241.3048  1.00269129 38566"}}, "geometry": {"type": "Point", "coordinates": [-74.74336365204105, -0.029823215272202767]}}]}